[{"OBJECT_NAME":"LUCH 5V (SDCM/PRN 141)","OBJECT_ID":"2014-023A","EPOCH":"2026-04-05T11:29:01.840992","MEAN_MOTION":1.00270216,"ECCENTRICITY":0.00029239,"INCLINATION":4.9551,"RA_OF_ASC_NODE":70.4556,"ARG_OF_PERICENTER":321.6837,"MEAN_ANOMALY":68.6271,"EPHEMERIS_TYPE":0,"CLASSIFICATION_TYPE":"U","NORAD_CAT_ID":39727,"ELEMENT_SET_NO":999,"REV_AT_EPOCH":4363,"BSTAR":0,"MEAN_MOTION_DOT":-2.65e-6,"MEAN_MOTION_DDOT":0},{"OBJECT_NAME":"GPS BIIF-6  (PRN 06)","OBJECT_ID":"2014-026A","EPOCH":"2026-04-04T04:06:53.650656","MEAN_MOTION":2.00566566,"ECCENTRICITY":0.0039371,"INCLINATION":56.5319,"RA_OF_ASC_NODE":334.4006,"ARG_OF_PERICENTER":326.0604,"MEAN_ANOMALY":33.7376,"EPHEMERIS_TYPE":0,"CLASSIFICATION_TYPE":"U","NORAD_CAT_ID":39741,"ELEMENT_SET_NO":999,"REV_AT_EPOCH":8705,"BSTAR":0,"MEAN_MOTION_DOT":-9.0e-7,"MEAN_MOTION_DDOT":0},{"OBJECT_NAME":"COSMOS 2500 (755)","OBJECT_ID":"2014-032A","EPOCH":"2026-04-02T22:59:49.674048","MEAN_MOTION":2.13105929,"ECCENTRICITY":0.00051372,"INCLINATION":65.2756,"RA_OF_ASC_NODE":316.2469,"ARG_OF_PERICENTER":188.3777,"MEAN_ANOMALY":171.6663,"EPHEMERIS_TYPE":0,"CLASSIFICATION_TYPE":"U","NORAD_CAT_ID":40001,"ELEMENT_SET_NO":999,"REV_AT_EPOCH":9185,"BSTAR":0,"MEAN_MOTION_DOT":-4.4e-7,"MEAN_MOTION_DDOT":0},{"OBJECT_NAME":"GPS BIIF-7  (PRN 09)","OBJECT_ID":"2014-045A","EPOCH":"2026-04-05T06:11:39.428736","MEAN_MOTION":2.00553703,"ECCENTRICITY":0.00314007,"INCLINATION":55.3047,"RA_OF_ASC_NODE":91.3685,"ARG_OF_PERICENTER":119.7721,"MEAN_ANOMALY":240.5476,"EPHEMERIS_TYPE":0,"CLASSIFICATION_TYPE":"U","NORAD_CAT_ID":40105,"ELEMENT_SET_NO":999,"REV_AT_EPOCH":8461,"BSTAR":0,"MEAN_MOTION_DOT":2.0e-8,"MEAN_MOTION_DDOT":0},{"OBJECT_NAME":"GSAT0201 (GALILEO 5)","OBJECT_ID":"2014-050A","EPOCH":"2026-04-04T13:49:15.301920","MEAN_MOTION":1.85520165,"ECCENTRICITY":0.166276,"INCLINATION":48.9567,"RA_OF_ASC_NODE":276.4486,"ARG_OF_PERICENTER":176.5217,"MEAN_ANOMALY":184.7885,"EPHEMERIS_TYPE":0,"CLASSIFICATION_TYPE":"U","NORAD_CAT_ID":40128,"ELEMENT_SET_NO":999,"REV_AT_EPOCH":7695,"BSTAR":0,"MEAN_MOTION_DOT":-4.3e-7,"MEAN_MOTION_DDOT":0},{"OBJECT_NAME":"GSAT0202 (GALILEO 6)","OBJECT_ID":"2014-050B","EPOCH":"2026-04-01T14:20:46.883040","MEAN_MOTION":1.85520784,"ECCENTRICITY":0.16633026,"INCLINATION":48.9773,"RA_OF_ASC_NODE":275.655,"ARG_OF_PERICENTER":177.1412,"MEAN_ANOMALY":183.931,"EPHEMERIS_TYPE":0,"CLASSIFICATION_TYPE":"U","NORAD_CAT_ID":40129,"ELEMENT_SET_NO":999,"REV_AT_EPOCH":7906,"BSTAR":0,"MEAN_MOTION_DOT":-5.5e-7,"MEAN_MOTION_DDOT":0},{"OBJECT_NAME":"IRNSS-1C","OBJECT_ID":"2014-061A","EPOCH":"2026-04-05T13:24:46.348992","MEAN_MOTION":1.00272974,"ECCENTRICITY":0.00208663,"INCLINATION":6.3319,"RA_OF_ASC_NODE":90.3216,"ARG_OF_PERICENTER":356.3621,"MEAN_ANOMALY":31.408,"EPHEMERIS_TYPE":0,"CLASSIFICATION_TYPE":"U","NORAD_CAT_ID":40269,"ELEMENT_SET_NO":999,"REV_AT_EPOCH":4196,"BSTAR":0,"MEAN_MOTION_DOT":-1.58e-6,"MEAN_MOTION_DDOT":0},{"OBJECT_NAME":"GPS BIIF-8  (PRN 03)","OBJECT_ID":"2014-068A","EPOCH":"2026-04-05T03:12:35.771904","MEAN_MOTION":2.00571865,"ECCENTRICITY":0.00643004,"INCLINATION":56.9408,"RA_OF_ASC_NODE":33.7696,"ARG_OF_PERICENTER":68.3893,"MEAN_ANOMALY":292.2824,"EPHEMERIS_TYPE":0,"CLASSIFICATION_TYPE":"U","NORAD_CAT_ID":40294,"ELEMENT_SET_NO":999,"REV_AT_EPOCH":8374,"BSTAR":0,"MEAN_MOTION_DOT":-8.3e-7,"MEAN_MOTION_DDOT":0},{"OBJECT_NAME":"COSMOS 2501 (702K)","OBJECT_ID":"2014-075A","EPOCH":"2026-03-25T07:16:41.300256","MEAN_MOTION":2.13101287,"ECCENTRICITY":0.00211828,"INCLINATION":63.6158,"RA_OF_ASC_NODE":193.2737,"ARG_OF_PERICENTER":207.3153,"MEAN_ANOMALY":152.5805,"EPHEMERIS_TYPE":0,"CLASSIFICATION_TYPE":"U","NORAD_CAT_ID":40315,"ELEMENT_SET_NO":999,"REV_AT_EPOCH":8806,"BSTAR":0,"MEAN_MOTION_DOT":1.0e-8,"MEAN_MOTION_DDOT":0},{"OBJECT_NAME":"GPS BIIF-9  (PRN 26)","OBJECT_ID":"2015-013A","EPOCH":"2026-04-05T06:24:09.814464","MEAN_MOTION":2.00555791,"ECCENTRICITY":0.0108819,"INCLINATION":53.179,"RA_OF_ASC_NODE":207.1929,"ARG_OF_PERICENTER":39.9408,"MEAN_ANOMALY":320.8559,"EPHEMERIS_TYPE":0,"CLASSIFICATION_TYPE":"U","NORAD_CAT_ID":40534,"ELEMENT_SET_NO":999,"REV_AT_EPOCH":8036,"BSTAR":0,"MEAN_MOTION_DOT":6.0e-8,"MEAN_MOTION_DDOT":0},{"OBJECT_NAME":"GSAT0203 (GALILEO 7)","OBJECT_ID":"2015-017A","EPOCH":"2026-04-04T07:16:46.263072","MEAN_MOTION":1.70475988,"ECCENTRICITY":0.0004485,"INCLINATION":56.8108,"RA_OF_ASC_NODE":343.6116,"ARG_OF_PERICENTER":297.4041,"MEAN_ANOMALY":62.597,"EPHEMERIS_TYPE":0,"CLASSIFICATION_TYPE":"U","NORAD_CAT_ID":40544,"ELEMENT_SET_NO":999,"REV_AT_EPOCH":6794,"BSTAR":0,"MEAN_MOTION_DOT":-9.5e-7,"MEAN_MOTION_DDOT":0},{"OBJECT_NAME":"GSAT0204 (GALILEO 8)","OBJECT_ID":"2015-017B","EPOCH":"2026-04-03T23:20:15.446400","MEAN_MOTION":1.70475693,"ECCENTRICITY":0.0003117,"INCLINATION":56.8167,"RA_OF_ASC_NODE":343.6389,"ARG_OF_PERICENTER":291.5044,"MEAN_ANOMALY":68.509,"EPHEMERIS_TYPE":0,"CLASSIFICATION_TYPE":"U","NORAD_CAT_ID":40545,"ELEMENT_SET_NO":999,"REV_AT_EPOCH":3098,"BSTAR":0,"MEAN_MOTION_DOT":-9.6e-7,"MEAN_MOTION_DDOT":0},{"OBJECT_NAME":"BEIDOU-3S IGSO-1S (C31)","OBJECT_ID":"2015-019A","EPOCH":"2026-03-23T06:58:51.098016","MEAN_MOTION":1.00268843,"ECCENTRICITY":0.0036261,"INCLINATION":49.3559,"RA_OF_ASC_NODE":296.4949,"ARG_OF_PERICENTER":190.1236,"MEAN_ANOMALY":255.118,"EPHEMERIS_TYPE":0,"CLASSIFICATION_TYPE":"U","NORAD_CAT_ID":40549,"ELEMENT_SET_NO":999,"REV_AT_EPOCH":4021,"BSTAR":0,"MEAN_MOTION_DOT":-1.63e-6,"MEAN_MOTION_DDOT":0},{"OBJECT_NAME":"GPS BIIF-10 (PRN 08)","OBJECT_ID":"2015-033A","EPOCH":"2026-04-05T10:14:25.023264","MEAN_MOTION":2.00560124,"ECCENTRICITY":0.01149439,"INCLINATION":54.0409,"RA_OF_ASC_NODE":270.0842,"ARG_OF_PERICENTER":29.596,"MEAN_ANOMALY":331.0219,"EPHEMERIS_TYPE":0,"CLASSIFICATION_TYPE":"U","NORAD_CAT_ID":40730,"ELEMENT_SET_NO":999,"REV_AT_EPOCH":7853,"BSTAR":0,"MEAN_MOTION_DOT":-1.4e-7,"MEAN_MOTION_DDOT":0},{"OBJECT_NAME":"BEIDOU-3S M2S (C58)","OBJECT_ID":"2015-037A","EPOCH":"2026-04-05T07:09:25.354368","MEAN_MOTION":1.86232104,"ECCENTRICITY":0.00077117,"INCLINATION":54.9349,"RA_OF_ASC_NODE":304.5553,"ARG_OF_PERICENTER":276.234,"MEAN_ANOMALY":83.6991,"EPHEMERIS_TYPE":0,"CLASSIFICATION_TYPE":"U","NORAD_CAT_ID":40748,"ELEMENT_SET_NO":999,"REV_AT_EPOCH":7276,"BSTAR":0,"MEAN_MOTION_DOT":-5.8e-7,"MEAN_MOTION_DDOT":0},{"OBJECT_NAME":"BEIDOU-3S M1S (C57)","OBJECT_ID":"2015-037B","EPOCH":"2026-04-03T21:41:35.825568","MEAN_MOTION":1.86254958,"ECCENTRICITY":0.0004693,"INCLINATION":54.9325,"RA_OF_ASC_NODE":304.5916,"ARG_OF_PERICENTER":43.1589,"MEAN_ANOMALY":316.9018,"EPHEMERIS_TYPE":0,"CLASSIFICATION_TYPE":"U","NORAD_CAT_ID":40749,"ELEMENT_SET_NO":999,"REV_AT_EPOCH":7274,"BSTAR":0,"MEAN_MOTION_DOT":-6.3e-7,"MEAN_MOTION_DDOT":0},{"OBJECT_NAME":"GSAT0205 (GALILEO 9)","OBJECT_ID":"2015-045A","EPOCH":"2026-04-04T17:26:04.587072","MEAN_MOTION":1.67410833,"ECCENTRICITY":0.00041552,"INCLINATION":54.9704,"RA_OF_ASC_NODE":223.7301,"ARG_OF_PERICENTER":270.0505,"MEAN_ANOMALY":89.8604,"EPHEMERIS_TYPE":0,"CLASSIFICATION_TYPE":"U","NORAD_CAT_ID":40889,"ELEMENT_SET_NO":999,"REV_AT_EPOCH":6573,"BSTAR":0,"MEAN_MOTION_DOT":-6.0e-8,"MEAN_MOTION_DDOT":0}]
